#dV2023  1  6 22  0  0.00000000    1682       CTS   FIT  GFZ
## 2243 511200.00000000    30.00000000 59950 0.9166666666667
+    1   L65  0  0  0  0  0  0  0  0  0  0  0  0  0  0  0  0
+          0  0  0  0  0  0  0  0  0  0  0  0  0  0  0  0  0
+          0  0  0  0  0  0  0  0  0  0  0  0  0  0  0  0  0
+          0  0  0  0  0  0  0  0  0  0  0  0  0  0  0  0  0
+          0  0  0  0  0  0  0  0  0  0  0  0  0  0  0  0  0
++         0  0  0  0  0  0  0  0  0  0  0  0  0  0  0  0  0
++         0  0  0  0  0  0  0  0  0  0  0  0  0  0  0  0  0
++         0  0  0  0  0  0  0  0  0  0  0  0  0  0  0  0  0
++         0  0  0  0  0  0  0  0  0  0  0  0  0  0  0  0  0
++         0  0  0  0  0  0  0  0  0  0  0  0  0  0  0  0  0
%c L  cc GPS ccc cccc cccc cccc cccc ccccc ccccc ccccc ccccc
%c cc cc ccc ccc cccc cccc cccc cccc ccccc ccccc ccccc ccccc
%f  0.0000000  0.000000000  0.00000000000  0.000000000000000
%f  0.0000000  0.000000000  0.00000000000  0.000000000000000
%i    0    0    0    0      0      0      0      0         0
%i    0    0    0    0      0      0      0      0         0
/* CCCCCCCCCCCCCCCCCCCCCCCCCCCCCCCCCCCCCCCCCCCCCCCCCCCCCCCCCCCCCCCCCCCCCCCCCCCCC
/* C                             GFZ RSO-ORBIT                                 C
/* C DOI: https://doi.org/10.5880/GFZ_ORBIT/RSO/L65_G_v02                      C
/* C                                                                           C
/* C DORIS        RMS: not applicable                                          C
/* C GNSS-E Code  RMS: not applicable                                          C
/* C GNSS-E Phase RMS: not applicable                                          C
/* C GNSS-G Code  RMS:  47.424 [cm]   Obs.acc.:     14578 Obs.eli.:      1123  C
/* C GNSS-G Phase RMS:   4.071 [mm]   Obs.acc.:     14578 Obs.eli.:      1123  C
/* C SLR          RMS:   1.679 [cm]   Obs.acc.:        29 Obs.eli.:         0  C
/* C                                                                           C
/* CCCCCCCCCCCCCCCCCCCCCCCCCCCCCCCCCCCCCCCCCCCCCCCCCCCCCCCCCCCCCCCCCCCCCCCCCCCCC
*  2023  1  6 22 25 30.00000000
PL65   -551.043140   2019.949668   6543.573789  22453.365460
VL65 -21833.941376  69069.902490 -23090.116416 999999.999999
*  2023  1  6 22 26  0.00000000
PL65   -615.779254   2226.156849   6470.704981  22453.832396
VL65 -21320.021698  68388.614229 -25484.641102 999999.999999
*  2023  1  6 22 26 30.00000000
PL65   -678.943043   2430.204062   6390.693941  22454.299354
VL65 -20785.875803  67630.037136 -27851.168637 999999.999999
*  2023  1  6 22 27  0.00000000
PL65   -740.475199   2631.860508   6303.628562  22454.766340
VL65 -20232.420912  66794.899238 -30187.103663 999999.999999
*  2023  1  6 22 27 30.00000000
PL65   -800.319194   2830.897709   6209.604476  22455.233339
VL65 -19660.592109  65884.016568 -32489.883181 999999.999999
*  2023  1  6 22 28  0.00000000
PL65   -858.421329   3027.089763   6108.724947  22455.700418
VL65 -19071.340557  64898.291609 -34756.980014 999999.999999
*  2023  1  6 22 28 30.00000000
PL65   -914.730780   3220.213600   6001.100768  22456.168468
VL65 -18465.632029  63838.710718 -36985.905572 999999.999999
*  2023  1  6 22 29  0.00000000
PL65   -969.199642   3410.049237   5886.850136  22456.636738
VL65 -17844.445366  62706.342588 -39174.210280 999999.999999
*  2023  1  6 22 29 30.00000000
PL65  -1021.782964   3596.380018   5766.098538  22457.104498
VL65 -17208.770860  61502.339167 -41319.485121 999999.999999
*  2023  1  6 22 30  0.00000000
PL65  -1072.438779   3778.992869   5638.978622  22457.571880
VL65 -16559.608650  60227.935402 -43419.364818 999999.999999
*  2023  1  6 22 30 30.00000000
PL65  -1121.128137   3957.678544   5505.630065  22458.039093
VL65 -15897.968116  58884.448322 -45471.530354 999999.999999
*  2023  1  6 22 31  0.00000000
PL65  -1167.815128   4132.231871   5366.199425  22458.506272
VL65 -15224.867681  57473.276144 -47473.712082 999999.999999
*  2023  1  6 22 31 30.00000000
PL65  -1212.466909   4302.451991   5220.839995  22458.973335
VL65 -14541.333250  55995.896869 -49423.692804 999999.999999
*  2023  1  6 22 32  0.00000000
PL65  -1255.053724   4468.142599   5069.711634  22459.440313
VL65 -13848.395937  54453.867279 -51319.310332 999999.999999
*  2023  1  6 22 32 30.00000000
PL65  -1295.548916   4629.112176   4912.980602  22459.907289
VL65 -13147.090337  52848.821491 -53158.460481 999999.999999
*  2023  1  6 22 33  0.00000000
PL65  -1333.928935   4785.174219   4750.819384  22460.374423
VL65 -12438.453137  51182.468653 -54939.099803 999999.999999
*  2023  1  6 22 33 30.00000000
PL65  -1370.173341   4936.147461   4583.406497  22460.841623
VL65 -11723.521316  49456.590950 -56659.247591 999999.999999
*  2023  1  6 22 34  0.00000000
PL65  -1404.264803   5081.856091   4410.926308  22461.308698
VL65 -11003.330191  47673.041732 -58316.987987 999999.999999
*  2023  1  6 22 34 30.00000000
PL65  -1436.189095   5222.129960   4233.568828  22461.775745
VL65 -10278.912341  45833.743020 -59910.471845 999999.999999
*  2023  1  6 22 35  0.00000000
PL65  -1465.935081   5356.804786   4051.529517  22462.242703
VL65  -9551.297600  43940.683555 -61437.917589 999999.999999
*  2023  1  6 22 35 30.00000000
PL65  -1493.494711   5485.722353   3865.009075  22462.709542
VL65  -8821.512906  41995.918624 -62897.612819 999999.999999
*  2023  1  6 22 36  0.00000000
PL65  -1518.863011   5608.730711   3674.213233  22463.176342
VL65  -8090.581336  40001.569662 -64287.917856 999999.999999
*  2023  1  6 22 36 30.00000000
PL65  -1542.038070   5725.684370   3479.352523  22463.643178
VL65  -7359.520292  37959.821591 -65607.270910 999999.999999
*  2023  1  6 22 37  0.00000000
PL65  -1563.021013   5836.444482   3280.642043  22464.110147
VL65  -6629.338203  35872.916824 -66854.191270 999999.999999
*  2023  1  6 22 37 30.00000000
PL65  -1581.815975   5940.879009   3078.301213  22464.577057
VL65  -5901.031864  33743.151858 -68027.276876 999999.999999
*  2023  1  6 22 38  0.00000000
PL65  -1598.430065   6038.862884   2872.553542  22465.044055
VL65  -5175.586098  31572.879384 -69125.204595 999999.999999
*  2023  1  6 22 38 30.00000000
PL65  -1612.873325   6130.278183   2663.626385  22465.511463
VL65  -4453.972914  29364.506154 -70146.735777 999999.999999
*  2023  1  6 22 39  0.00000000
PL65  -1625.158693   6215.014274   2451.750679  22465.978713
VL65  -3737.149641  27120.486765 -71090.718453 999999.999999
*  2023  1  6 22 39 30.00000000
PL65  -1635.301955   6292.967955   2237.160691  22466.445882
VL65  -3026.057878  24843.320349 -71956.086876 999999.999999
*  2023  1  6 22 40  0.00000000
PL65  -1643.321697   6364.043589   2020.093753  22466.912780
VL65  -2321.622619  22535.548797 -72741.862852 999999.999999
*  2023  1  6 22 40 30.00000000
PL65  -1649.239254   6428.153223   1800.789998  22467.379577
VL65  -1624.750537  20199.753566 -73447.157525 999999.999999
*  2023  1  6 22 41  0.00000000
PL65  -1653.078651   6485.216704   1579.492092  22467.846292
VL65   -936.328503  17838.552595 -74071.171723 999999.999999
*  2023  1  6 22 41 30.00000000
PL65  -1654.866542   6535.161784   1356.444960  22468.313247
VL65   -257.222887  15454.598346 -74613.197098 999999.999999
*  2023  1  6 22 42  0.00000000
PL65  -1654.632151   6577.924223   1131.895516  22468.779685
VL65    411.721337  13050.574414 -75072.618155 999999.999999
*  2023  1  6 22 42 30.00000000
PL65  -1652.407199   6613.447871    906.092380  22469.245763
VL65   1069.681688  10629.191351 -75448.912825 999999.999999
*  2023  1  6 22 43  0.00000000
PL65  -1648.225844   6641.684746    679.285598  22469.711816
VL65   1715.859093   8193.183633 -75741.652377 999999.999999
*  2023  1  6 22 43 30.00000000
PL65  -1642.124603   6662.595103    451.726359  22470.178093
VL65   2349.478626   5745.307278 -75950.502017 999999.999999
*  2023  1  6 22 44  0.00000000
PL65  -1634.142281   6676.147495    223.666718  22470.644503
VL65   2969.790597   3288.337172 -76075.222229 999999.999999
*  2023  1  6 22 44 30.00000000
PL65  -1624.319891   6682.318822     -4.640698  22471.111026
VL65   3576.072112    825.063360 -76115.669955 999999.999999
*  2023  1  6 22 45  0.00000000
PL65  -1612.700575   6681.094373   -232.942979  22471.577415
VL65   4167.628055  -1641.712729 -76071.798687 999999.999999
*  2023  1  6 22 45 30.00000000
PL65  -1599.329516   6672.467854   -460.987219  22472.043769
VL65   4743.791752  -4109.180732 -75943.658911 999999.999999
*  2023  1  6 22 46  0.00000000
PL65  -1584.253854   6656.441412   -688.520811  22472.510140
VL65   5303.926968  -6574.525135 -75731.400822 999999.999999
*  2023  1  6 22 46 30.00000000
PL65  -1567.522587   6633.025639   -915.291753  22472.976784
VL65   5847.429872  -9034.934391 -75435.274850 999999.999999
*  2023  1  6 22 47  0.00000000
PL65  -1549.186481   6602.239543  -1141.048934  22473.443300
VL65   6373.727496 -11487.607283 -75055.625473 999999.999999
*  2023  1  6 22 47 30.00000000
PL65  -1529.297972   6564.110525  -1365.542414  22473.909999
VL65   6882.276511 -13929.750216 -74592.887852 999999.999999
*  2023  1  6 22 48  0.00000000
PL65  -1507.911083   6518.674357  -1588.523699  22474.376164
VL65   7372.565397 -16358.577457 -74047.591537 999999.999999
*  2023  1  6 22 48 30.00000000
PL65  -1485.081319   6465.975147  -1809.746027  22474.842519
VL65   7844.115961 -18771.318402 -73420.361720 999999.999999
*  2023  1  6 22 49  0.00000000
PL65  -1460.865571   6406.065284  -2028.964650  22475.308681
VL65   8296.483519 -21165.223297 -72711.915740 999999.999999
*  2023  1  6 22 49 30.00000000
PL65  -1435.322013   6339.005372  -2245.937108  22475.775064
VL65   8729.257138 -23537.564985 -71923.059862 999999.999999
*  2023  1  6 22 50  0.00000000
PL65  -1408.510000   6264.864162  -2460.423491  22476.241763
VL65   9142.059941 -25885.639845 -71054.688412 999999.999999
*  2023  1  6 22 50 30.00000000
PL65  -1380.489968   6183.718478  -2672.186703  22476.708802
VL65   9534.549474 -28206.770015 -70107.783984 999999.999999
EOF
